#dP2023  6  9  0  0  0.00000000      96 __u+U ITR00 FIT  IAC
## 2265 432000.00000000   900.00000000 60104 0.0000000000000
+  119   C06C07C08C09C10C11C12C13C14C16C19C20C21C22C23C24C25
+        C26C27C28C29C30C32C33C34C35C36C37C38C39C40C41C42C43
+        C44C45C46E02E03E04E05E07E08E09E10E11E12E13E14E15E18
+        E19E21E24E25E26E27E30E31E33E34E36G01G02G03G04G05G06
+        G07G08G09G10G11G12G13G14G15G16G17G18G19G20G21G22G23
+        G24G25G26G27G28G29G30G31G32J02J03J04R01R02R03R04R05
+        R07R08R09R11R12R13R14R15R16R17R18R19R20R21R22R24R25
++         6  6  8  7  8  6  8  7  7  5  7  7  6  7  7  5  6
++         7  6  6  6  5  5  7  6  6  7  7  7  8  9  6  7  6
++         7  7  7  5  6  7  5  6  6  5  5  5  6  5  7  5  6
++         6  6  6  6  5  6  6  6  6  5  6  5  0  6  5  7  5
++         6  5  5  6  6  6  6  6  5  6  5  5  6  7  6  5  6
++         6  6  5  7  5  6  5  6  6  7  8  8  6  5  7  5  6
++         7  5  5  7  5  7  5  6  6  6  4  6  7  5  7  5  5
%c M  cc GPS ccc cccc cccc cccc cccc ccccc ccccc ccccc ccccc
%c cc cc ccc ccc cccc cccc cccc cccc ccccc ccccc ccccc ccccc
%f  0.0000000  0.000000000  0.00000000000  0.000000000000000
%f  0.0000000  0.000000000  0.00000000000  0.000000000000000
%i    0    0    0    0      0      0      0      0         0
%i    0    0    0    0      0      0      0      0         0
/* INFORMATION & ANALYSIS CENTER (IAC)      ULTRA-RAPID DATA
/* S/V CLOCKS ARE ALIGNED TO GNSS TIME                      
/* G:C1WC2W R:C1PC2P E:C1XC5X C:C2IC6I J:C1CC2S             
/* PCV:IGS20_2247 OL/AL:FES2004  NONE     YN ORB:CoN CLK:CoN
*  2023 06 09 13  0  0.00000000
PC06  -4728.471241  39085.066584  15499.603561   -180.762973
PC07  -8844.823272  25936.754414 -32013.235518   -146.239358
PC08 -19054.217677  31865.690645  19809.994448    464.162563
PC09    668.788616  42048.689231   6324.552252    554.898073
PC10     61.976112  27456.912847 -31623.768342    -81.197664
PC11  -1923.345682  23254.598412 -15230.744919    664.840501
PC12 -13726.095277   7122.116944 -23199.140513    700.026180
PC13 -11326.532182  31837.775119  25204.847256    292.687616
PC14  -7399.873272  14645.270426  22598.086144    383.784561
PC16  -6118.438676  37899.931939  18020.302868     49.314949
PC19  -3957.643158 -15938.176377 -22540.242986   -920.780402
PC20  15691.483747 -11649.619395 -19892.720103    514.436702
PC21 -27482.664729   -100.601483   4955.080135   -921.818098
PC22 -22349.160335 -11311.295743 -12335.917886   -448.951727
PC23  10914.971344  12422.882952 -22468.979141   -952.551177
PC24 -18429.323877  20738.694796   2895.640534     42.651297
PC25  -3961.648232  23419.750564 -14640.081041    143.784648
PC26 -20655.149367   7380.342641  17221.597642   -132.291738
PC27  17216.091084   1949.088231  21853.371035    152.618022
PC28  16601.068350  19107.550120  11745.155401    113.285521
PC29  -6476.811626 -26212.430356   7040.196967    131.716745
PC30   8276.702208 -16779.578283  20686.502413     -1.034949
PC32  27471.087151    -44.161644  -4835.871078   -550.987399
PC33   3876.200668  15951.519645  22569.036140   -892.723272
PC34  -7380.882432  17936.558067 -20087.564430    189.301545
PC35 -17158.079507 -18914.039437 -11226.314606    611.266759
PC36   5153.265987 -23543.614069  14097.136371   -393.071408
PC37  20602.705656  -5859.085508 -17881.444175   -785.028992
PC38 -23504.759257  32834.219643  11939.877491     83.962718
PC39  -7114.666817  35315.931615  22154.622121     -3.243490
PC40 -12788.292406  19801.289189 -34996.138409    -25.718072
PC41  21846.655016  11599.902860  12960.074999   -925.006090
PC42 -17034.897223  11099.493750  19173.051306   -656.504025
PC43   5754.086961  26178.116772  -7819.874601     25.379316
PC44 -17456.993254  -1404.771763 -21737.598449    132.771310
PC45 -11178.674542 -11940.189956  22615.287327   -108.189559
PC46  17773.932207 -21488.215168  -1470.051357    -60.245829
PE02 -15554.666197 -10819.276310  22735.671405     43.045269
PE03 -21637.020180 -20029.193980  -2706.659535    -24.693241
PE04  24717.143108   6647.111792 -14852.442257   -140.965639
PE05  -5768.261515 -21913.715674 -19038.467851    -59.604078
PE07 -13561.811784  10728.542175  24036.051063    -51.380159
PE08 -24759.454611  -6956.059255  14674.154295    -96.284034
PE09  13571.505369 -10516.723731 -24102.521949    -44.100667
PE10  16029.978675 -12126.976668  21715.487068   -539.937033
PE11  13164.716731 -22041.264389  14701.311235   2171.864801
PE12  16337.477546  -1130.074376  24644.650205   -572.914463
PE13 -13393.517565  21476.872548 -15359.170704    -19.244822
PE14  13059.452291  20679.958476  -6667.981696    249.175739
PE15 -16231.597381    780.871476 -24743.768906    -28.156865
PE18 -24766.371105 -18999.937289  -5151.667054    161.909638
PE19  20063.538009  21123.797540   5245.361949  -2339.234238
PE21  -4557.203120  18393.822032 -22739.518315   -533.993205
PE24  23662.687579 -15395.211313   8918.577693   -145.440095
PE25   4937.368559 -18449.346318  22619.824150   -606.468599
PE26  -2281.937398  29288.357927   3626.466902    129.028852
PE27 -23146.117929  15762.306376  -9580.153342    -70.396716
PE30 -27813.809211   3379.944800   9524.806371   -241.445245
PE31  27905.793367  -3887.381783  -9065.752837   -525.530223
PE33   9457.884396  20220.113956  19439.173327   -443.382144
PE34  -9589.112823 -20068.004665 -19547.408769    -49.899242
PE36   2745.605010 -29324.600122  -2904.262948    -68.690877
PG01  13509.417384 -17124.732957  14563.688963    179.492744
PG02      0.000000      0.000000      0.000000 999999.999999
PG03  21652.031152 -13050.389801  -8075.195217   -276.392790
PG04  12058.038490  -9406.249890 -21709.600805     63.658290
PG05 -25104.783312   3746.370847  -8197.413854   -130.440687
PG06  -6441.410136 -20205.732987 -15869.888719    585.842548
PG07   5805.069861 -25607.801339   -887.920578    156.857811
PG08  20354.812163   1229.633265  17151.492906   -126.543402
PG09   1954.525340 -17072.354168 -20312.515575   -139.779910
PG10   6430.433259  13515.620568  22131.086831    -40.433922
PG11 -14040.442622  -5906.320361 -21754.839739   -228.754808
PG12 -23882.555247  10249.566049  -5536.791861   -386.444296
PG13 -20719.481489 -10213.439356  13114.297555    531.639224
PG14  -2744.579144 -15303.355190  21540.377755     84.950223
PG15 -20212.538033   1699.154457  16817.908705     47.266522
PG16  24439.513855   1929.419208 -11074.100445   -493.193451
PG17 -11371.613110 -21595.744873  10772.979011    717.799040
PG18  -4479.371548  26034.153207   1733.479060   -300.696743
PG19 -16948.384002 -20534.106814   2137.176030    328.253229
PG20 -20924.758250  -1810.660831 -16108.772671    428.956688
PG21  15304.264430  -7765.268650  20579.316676    153.246773
PG22  18484.768684  19187.872252     49.788468    495.127696
PG23  -7293.534458  16683.056224  19284.742822     31.568840
PG24 -14368.127079  13350.376325  17358.427998   -218.831854
PG25 -14691.811561  16440.530431 -14929.211068    448.641776
PG26  16653.314494   8389.377599 -19150.303403    239.404677
PG27  22414.831110  11711.020408   8519.514882     20.002275
PG28   6511.561160  21523.017966 -14160.692642     82.723696
PG29  -5343.312488  15071.659484 -21245.697498   -602.257044
PG30  -1427.321174 -24929.859761   8762.186152   -512.131917
PG31  12742.135656  10652.473535 -20809.275576   -217.806985
PG32  14771.782830  20575.860908   8504.910174   -496.307504
PJ02 -35661.417544  18398.493887  -8402.028989     -0.418440
PJ03 -19440.281086  29216.467119 -18822.660396      6.085104
PJ04 -28396.689755  27590.465230  20695.583307     95.217517
PR01  14295.409274  -5924.864719 -20268.622839     59.089134
PR02  -4551.280150 -12262.872616 -21839.295307    -22.733478
PR03 -20172.032161 -11574.187291 -10366.095661     79.356779
PR04 -24198.141104  -4712.861755   6564.522350    190.515094
PR05 -15171.050189   4753.829928  19955.059223    113.893554
PR07  20665.707615  11443.357135   9727.891052     57.668157
PR08  24223.855873   4510.381827  -6591.018225    -71.209081
PR09  -6814.718645  18041.824168 -16719.930849    124.854982
PR11  18123.155929  -6001.964970 -16894.655225    -75.369090
PR12  18515.576186 -17541.137427    725.660289     27.991730
PR13   8652.526085 -18351.710179  15448.112858    -35.916824
PR14  -8103.490762  -7674.352755  22951.599362     24.755112
PR15 -18711.308275   6758.017172  15991.827930     88.735594
PR16 -18529.070024  17556.311782   -333.183073     15.448070
PR17 -10006.432163 -19921.222560 -12432.834631    637.463855
PR18 -11222.596765  -4625.082235 -22419.293351     85.731442
PR19  -7709.751167  11461.454303 -21451.009731   -235.662930
PR20   1632.547254  24823.485319  -5735.449475    -94.362119
PR21  10170.067165  18972.017055  13657.541306    -13.919245
PR22  11407.455521   3952.493450  22492.930399     79.904190
PR24  -2682.830324 -24861.974630   5085.185227    -10.928107
PR25   9214.275734  20370.973594  12261.724801     60.071503
EOF
